[{"OBJECT_NAME":"TEVEL2-8","OBJECT_ID":"2025-052AF","EPOCH":"2026-03-09T16:02:08.542752","MEAN_MOTION":15.28392908,"ECCENTRICITY":0.0008031,"INCLINATION":97.4055,"RA_OF_ASC_NODE":324.2923,"ARG_OF_PERICENTER":124.9191,"MEAN_ANOMALY":235.2804,"EPHEMERIS_TYPE":0,"CLASSIFICATION_TYPE":"U","NORAD_CAT_ID":63239,"ELEMENT_SET_NO":999,"REV_AT_EPOCH":5480,"BSTAR":0.00069303947,"MEAN_MOTION_DOT":0.0001913,"MEAN_MOTION_DDOT":0},{"OBJECT_NAME":"STARLINK-35857","OBJECT_ID":"2025-303Z","EPOCH":"2026-03-09T01:56:45.507264","MEAN_MOTION":15.27594448,"ECCENTRICITY":0.00011,"INCLINATION":43.0011,"RA_OF_ASC_NODE":314.0191,"ARG_OF_PERICENTER":308.1629,"MEAN_ANOMALY":51.9124,"EPHEMERIS_TYPE":0,"CLASSIFICATION_TYPE":"U","NORAD_CAT_ID":67186,"ELEMENT_SET_NO":999,"REV_AT_EPOCH":1264,"BSTAR":0.00093066942,"MEAN_MOTION_DOT":0.00025447,"MEAN_MOTION_DDOT":0}]
